SAR-LUPE 2              
1 31797U 07030A   26171.25116067  .00030584  00000+0  53599-3 0  9995
2 31797  98.1041 276.0636 0004049 149.8194 210.3289 15.50532215 57416
SAPPHIRE                
1 39088U 13009C   26171.29903114  .00000070  00000+0  39317-4 0  9990
2 39088  98.4263 350.6809 0010172 236.3723 123.6493 14.35241258697027
PRAETORIAN SDA_602      
1 65565U 25203A   26171.27657533  .00000062  00000+0  45004-4 0  9998
2 65565  81.3029   7.9069 0005956 177.1718 182.9474 13.84277876 39123
PRAETORIAN SDA_603      
1 65566U 25203B   26171.01490257  .00002001  00000+0  17927-2 0  9995
2 65566  81.3073   8.0699 0008573 185.4099 174.6967 13.83914712 39093
PRAETORIAN SDA_604      
1 65567U 25203C   26170.96403972  .00000046  00000+0  31258-4 0  9999
2 65567  81.3052   8.5312 0005419 183.6347 176.4770 13.83047734 39060
PRAETORIAN SDA_605      
1 65568U 25203D   26171.29021462  .00000043  00000+0  27955-4 0  9993
2 65568  81.3018   7.8898 0008250 174.5092 185.6157 13.83434437 39124
PRAETORIAN SDA_606      
1 65569U 25203E   26168.30750804  .00000053  00000+0  37439-4 0  9990
2 65569  81.3055  10.8712 0005744 180.4388 179.6764 13.83407378 38708
PRAETORIAN SDA_607      
1 65570U 25203F   26171.27890219  .00000120  00000+0  97190-4 0  9992
2 65570  81.3036   7.7808 0008896 178.9841 181.1336 13.84284906 39139
PRAETORIAN SDA_608      
1 65571U 25203G   26170.96812951  .00000055  00000+0  39047-4 0  9999
2 65571  81.3006   8.2326 0005962 182.8661 177.2462 13.83817209 39079
PRAETORIAN SDA_609      
1 65572U 25203H   26170.97224787 -.00000045  00000+0 -50798-4 0  9992
2 65572  81.3047   8.2110 0006881 177.4428 182.6765 13.84210630 39081
PRAETORIAN SDA_610      
1 65573U 25203J   26170.94796112 -.00000038  00000+0 -44758-4 0  9997
2 65573  81.2999   8.2091 0006784 183.5339 176.5771 13.83767551 39072
PRAETORIAN SDA_611      
1 65574U 25203K   26170.94967813  .00000273  00000+0  23818-3 0  9998
2 65574  81.3011   8.3747 0005535 186.3913 173.7174 13.83309580 39069
PRAETORIAN SDA_612      
1 65575U 25203L   26171.00808529  .00000136  00000+0  10952-3 0  9998
2 65575  81.3027   7.9007 0009301 178.9704 181.1474 13.85039745 39107
PRAETORIAN SDA_613      
1 65576U 25203M   26170.95751025  .00000045  00000+0  30652-4 0  9999
2 65576  81.2998   8.3673 0005719 176.1966 183.9234 13.82765296 39060
PRAETORIAN SDA_614      
1 65577U 25203N   26171.28680602  .00000082  00000+0  61872-4 0  9998
2 65577  81.3014   7.7208 0007187 175.0044 185.1186 13.84777598 39143
PRAETORIAN SDA_615      
1 65578U 25203P   26170.90310214  .00000160  00000+0  13204-3 0  9998
2 65578  81.3025   8.0421 0008983 177.7389 182.3810 13.84436667 39088
PRAETORIAN SDA_616      
1 65579U 25203Q   26170.94897446  .00000194  00000+0  16597-3 0  9995
2 65579  81.3060   8.5231 0005429 184.4895 175.6214 13.83268264 39067
PRAETORIAN SDA_617      
1 65580U 25203R   26170.97081399  .00000027  00000+0  13754-4 0  9990
2 65580  81.3036   8.3339 0007410 176.5209 183.6000 13.83150181 39073
PRAETORIAN SDA_618      
1 65581U 25203S   26170.94095469  .00000180  00000+0  14921-3 0  9997
2 65581  81.3020   7.9356 0009634 180.2746 179.8408 13.84669976 39098
PRAETORIAN SDA_619      
1 65582U 25203T   26170.97861984  .00000100  00000+0  79600-4 0  9992
2 65582  81.3048   8.2022 0008153 177.5525 182.5673 13.83806323 39714
PRAETORIAN SDA_620      
1 65583U 25203U   26170.93467217  .00000186  00000+0  15803-3 0  9998
2 65583  81.3035   8.2662 0007910 173.7762 186.3494 13.83619762 39073
PRAETORIAN SDA_621      
1 65584U 25203V   26171.26961721  .00000043  00000+0  27910-4 0  9990
2 65584  81.3020   7.8711 0007532 170.2935 189.8368 13.83801503 39122
PRAETORIAN SDA_601      
1 65585U 25203W   26170.95230967  .00000504  00000+0  44903-3 0  9999
2 65585  81.3041   8.4633 0005507 187.7583 172.3489 13.83168348 39065
